STARLETTE               
1 07646U 75010A   09243.21629404 -.00000178  00000-0 -28437-4 0   405
2 07646  49.8238 194.7889 0205851 320.6370  37.9714 13.82271946746064
LAGEOS 1                
1 08820U 76039A   09242.14491690  .00000033  00000-0  10000-3 0  8285
2 08820 109.8300 237.7324 0044883 176.2497 183.8541  6.38664548521763
EGP                     
1 16908U 86061A   09243.21396964 -.00000083  00000-0  10000-3 0  9988
2 16908  50.0104 288.3239 0011137  49.6113 310.5693 12.44462539716942
LAGEOS 2                
1 22195U 92070B   09241.83022700 -.00000009  00000-0  10000-3 0   451
2 22195  52.6385 184.3224 0137385  25.1113 335.6054  6.47294461398430
STELLA                  
1 22824U 93061B   09242.48302106 -.00000156  00000-0 -46285-4 0  3591
2 22824  98.4805 188.5821 0007480  84.4091 275.7939 14.27283810829784
WESTPAC                 
1 25398U 98043E   09242.10778089 -.00000080  00000-0 -17706-4 0  6091
2 25398  98.3269 259.3124 0001912  35.6172 324.5135 14.22676163578527
GRACE 1                 
1 27391U 02012A   09243.07458313  .00000622  00000-0  17644-4 0  2816
2 27391  89.0226 353.0051 0016173 164.0184 196.1588 15.34267905416797
GRACE 2                 
1 27392U 02012B   09242.42203488  .00000428  00000-0  11813-4 0  2801
2 27392  89.0204 353.1068 0016861 169.4858 190.6749 15.34268306416697
